STARLINK-31413          
1 59353U 24060F   26068.54641809 -.00002024  00000+0 -64073-4 0  9999
2 59353  43.0004 260.4350 0001123 286.1881  73.8847 15.27571850110043
LUR-1                   
1 60506U 24149AQ  26068.79566301  .00009121  00000+0  32985-3 0  9998
2 60506  97.3790 148.4255 0002777 309.1571  50.9421 15.28658648 86785
